[
    {
        "Altitude(m)": 605459.0338210851,
        "Argument of Periapsis(deg)": 0.0,
        "Eccentricity": 0.0,
        "Inclination(deg)": 60.0,
        "Latitude(deg)": 27.988230311643303,
        "Longitude(deg)": -172.20136185682765,
        "Mean Anomaly(deg)": 32.72730000000001,
        "RAAN(deg)": 270.0,
        "Satellite Name": "Test1 1190",
        "Satellite Number": 1190,
        "Semi-Major Axis(m)": 6980739.136638005,
        "Time(s)": 0
    },
    {
        "Altitude(m)": 605535.8247033759,
        "Argument of Periapsis(deg)": 0.00010418945913296404,
        "Eccentricity": 0.0,
        "Inclination(deg)": 60.0,
        "Latitude(deg)": 28.501359187320354,
        "Longitude(deg)": -171.84441556681494,
        "Mean Anomaly(deg)": 33.34740614546182,
        "RAAN(deg)": 269.99957995086027,
        "Satellite Name": "Test1 1190",
        "Satellite Number": 1190,
        "Semi-Major Axis(m)": 6980739.136638005,
        "Time(s)": 10
    }
]